HAWK-12C                
1 64621U 25138A   26068.95480737  .00006237  00000+0  31483-3 0  9992
2 64621  97.4363  73.1446 0015792 124.4693 235.8035 15.17353041 38817
TRANSPORTER-15 OBJECT CX
1 66759U 25276CX  26068.76139911  .00008872  00000+0  41936-3 0  9994
2 66759  97.4237 144.0993 0000189  69.6860 290.4395 15.19627935 15332
